CCSDS_OMM_VERS,COMMENT,CREATION_DATE,ORIGINATOR,OBJECT_NAME,OBJECT_ID,CENTER_NAME,REF_FRAME,TIME_SYSTEM,MEAN_ELEMENT_THEORY,EPOCH,MEAN_MOTION,ECCENTRICITY,INCLINATION,RA_OF_ASC_NODE,ARG_OF_PERICENTER,MEAN_ANOMALY,EPHEMERIS_TYPE,CLASSIFICATION_TYPE,NORAD_CAT_ID,ELEMENT_SET_NO,REV_AT_EPOCH,BSTAR,MEAN_MOTION_DOT,MEAN_MOTION_DDOT,SEMIMAJOR_AXIS,PERIOD,APOAPSIS,PERIAPSIS,OBJECT_TYPE,RCS_SIZE,COUNTRY_CODE,LAUNCH_DATE,SITE,DECAY_DATE,FILE,GP_ID,TLE_LINE0,TLE_LINE1,TLE_LINE2
"2.0","GENERATED VIA SPACE-TRACK.ORG API","2014-01-22T07:44:50","18 SPCS","PAYLOAD C","2013-037C","EARTH","TEME","UTC","SGP4","2014-01-22T04:27:00.352799","14.95263672","0.00341990","97.6860","41.5666","136.5211","223.8724","0","U","39210","999","2775","0.00004208300000","0.00000410","0.0000000000000","6959.695","96.304","605.362","557.759","PAYLOAD","LARGE","PRC","2013-07-19","TSC","","1618690","94959623","0 PAYLOAD C","1 39210U 13037C   14022.18542075  .00000410  00000-0  42083-4 0  9996","2 39210 097.6860 041.5666 0034199 136.5211 223.8724 14.95263672 27750"
"2.0","GENERATED VIA SPACE-TRACK.ORG API","2014-01-22T07:44:32","18 SPCS","PAYLOAD B","2013-037B","EARTH","TEME","UTC","SGP4","2014-01-22T04:49:43.427712","14.67359018","0.00058390","98.0460","41.6527","119.7131","240.4659","0","U","39209","999","2730","0.00007303700000","0.00000365","0.0000000000000","7047.653","98.135","673.633","665.403","PAYLOAD","LARGE","PRC","2013-07-19","TSC","","1618689","94959576","0 PAYLOAD B","1 39209U 13037B   14022.20119708  .00000365  00000-0  73037-4 0  9992","2 39209 098.0460 041.6527 0005839 119.7131 240.4659 14.67359018 27301"
"2.0","GENERATED VIA SPACE-TRACK.ORG API","2014-01-22T14:27:11","18 SPCS","PAYLOAD A","2013-037A","EARTH","TEME","UTC","SGP4","2014-01-22T10:38:25.694016","14.67987795","0.00099010","98.0469","42.1211","129.9739","230.2347","0","U","39208","999","2736","0.00007294900000","0.00000370","0.0000000000000","7045.640","98.093","674.481","660.529","PAYLOAD","LARGE","PRC","2013-07-19","TSC","","1618728","94960289","0 PAYLOAD A","1 39208U 13037A   14022.44335294  .00000370  00000-0  72949-4 0  9994","2 39208 098.0469 042.1211 0009901 129.9739 230.2347 14.67987795 27362"
"2.0","GENERATED VIA SPACE-TRACK.ORG API","2014-01-22T15:35:36","18 SPCS","PAYLOAD C","2013-037C","EARTH","TEME","UTC","SGP4","2014-01-22T12:28:49.563840","14.95264654","0.00341800","97.6863","41.8950","135.3159","225.0839","0","U","39210","999","2780","0.00005017700000","0.00000500","0.0000000000000","6959.692","96.304","605.346","557.769","PAYLOAD","LARGE","PRC","2013-07-19","TSC","","1618803","94962120","0 PAYLOAD C","1 39210U 13037C   14022.52001810  .00000500  00000-0  50177-4 0  9994","2 39210 097.6863 041.8950 0034180 135.3159 225.0839 14.95264654 27808"
"2.0","GENERATED VIA SPACE-TRACK.ORG API","2014-01-22T15:35:19","18 SPCS","PAYLOAD B","2013-037B","EARTH","TEME","UTC","SGP4","2014-01-22T13:00:41.736671","14.67359366","0.00059730","98.0462","41.9874","118.7526","241.4269","0","U","39209","999","2735","0.00007678800000","0.00000386","0.0000000000000","7047.652","98.135","673.726","665.307","PAYLOAD","LARGE","PRC","2013-07-19","TSC","","1618802","94962090","0 PAYLOAD B","1 39209U 13037B   14022.54214973  .00000386  00000-0  76788-4 0  9998","2 39209 098.0462 041.9874 0005973 118.7526 241.4269 14.67359366 27356"
"2.0","GENERATED VIA SPACE-TRACK.ORG API","2014-01-22T22:27:29","18 SPCS","PAYLOAD A","2013-037A","EARTH","TEME","UTC","SGP4","2014-01-22T20:27:20.547360","14.67988198","0.00098990","98.0469","42.5231","128.6724","231.5371","0","U","39208","999","2742","0.00007453700000","0.00000379","0.0000000000000","7045.639","98.093","674.478","660.529","PAYLOAD","LARGE","PRC","2013-07-19","TSC","","1618877","94963015","0 PAYLOAD A","1 39208U 13037A   14022.85232115  .00000379  00000-0  74537-4 0  9991","2 39208 098.0469 042.5231 0009899 128.6724 231.5371 14.67988198 27420"
"2.0","GENERATED VIA SPACE-TRACK.ORG API","2014-01-22T23:39:34","18 SPCS","PAYLOAD C","2013-037C","EARTH","TEME","UTC","SGP4","2014-01-22T20:30:38.812032","14.95265126","0.00343890","97.6863","42.2229","134.1769","226.2302","0","U","39210","999","2785","0.00005269100000","0.00000528","0.0000000000000","6959.691","96.303","605.490","557.622","PAYLOAD","LARGE","PRC","2013-07-19","TSC","","1618967","94965040","0 PAYLOAD C","1 39210U 13037C   14022.85461588  .00000528  00000-0  52691-4 0  9995","2 39210 097.6863 042.2229 0034389 134.1769 226.2302 14.95265126 27855"
"2.0","GENERATED VIA SPACE-TRACK.ORG API","2014-01-22T23:39:16","18 SPCS","PAYLOAD B","2013-037B","EARTH","TEME","UTC","SGP4","2014-01-22T21:11:40.166591","14.67358890","0.00058520","98.0460","42.3227","117.0287","243.1527","0","U","39209","999","2740","0.00005874600000","0.00000284","0.0000000000000","7047.653","98.135","673.642","665.394","PAYLOAD","LARGE","PRC","2013-07-19","TSC","","1618966","94965002","0 PAYLOAD B","1 39209U 13037B   14022.88310378  .00000284  00000-0  58746-4 0  9992","2 39209 098.0460 042.3227 0005852 117.0287 243.1527 14.67358890 27406"
"2.0","GENERATED VIA SPACE-TRACK.ORG API","2014-01-23T08:09:58","18 SPCS","PAYLOAD C","2013-037C","EARTH","TEME","UTC","SGP4","2014-01-23T04:32:27.990240","14.95265734","0.00343590","97.6861","42.5510","133.0315","227.3795","0","U","39210","999","2790","0.00005442100000","0.00000547","0.0000000000000","6959.689","96.303","605.467","557.641","PAYLOAD","LARGE","PRC","2013-07-19","TSC","","1619173","94967695","0 PAYLOAD C","1 39210U 13037C   14023.18921285  .00000547  00000-0  54421-4 0  9991","2 39210 097.6861 042.5510 0034359 133.0315 227.3795 14.95265734 27900"
"2.0","GENERATED VIA SPACE-TRACK.ORG API","2014-01-23T06:44:02","18 SPCS","PAYLOAD A","2013-037A","EARTH","TEME","UTC","SGP4","2014-01-23T04:38:06.287712","14.67987905","0.00099190","98.0470","42.8593","127.9578","232.2524","0","U","39208","999","2747","0.00005800200000","0.00000284","0.0000000000000","7045.640","98.093","674.493","660.516","PAYLOAD","LARGE","PRC","2013-07-19","TSC","","1619102","94965961","0 PAYLOAD A","1 39208U 13037A   14023.19312833  .00000284  00000-0  58002-4 0  9999","2 39208 098.0470 042.8593 0009919 127.9578 232.2524 14.67987905 27476"
"2.0","GENERATED VIA SPACE-TRACK.ORG API","2014-01-23T08:08:34","18 SPCS","PAYLOAD B","2013-037B","EARTH","TEME","UTC","SGP4","2014-01-23T05:22:38.433215","14.67359431","0.00058420","98.0459","42.6575","116.6454","243.5363","0","U","39209","999","2745","0.00006328600000","0.00000310","0.0000000000000","7047.651","98.135","673.634","665.399","PAYLOAD","LARGE","PRC","2013-07-19","TSC","","1619172","94967662","0 PAYLOAD B","1 39209U 13037B   14023.22405594  .00000310  00000-0  63286-4 0  9991","2 39209 098.0459 042.6575 0005842 116.6454 243.5363 14.67359431 27452"
"2.0","GENERATED VIA SPACE-TRACK.ORG API","2014-01-23T12:26:23","18 SPCS","PAYLOAD A","2013-037A","EARTH","TEME","UTC","SGP4","2014-01-23T06:16:15.433535","14.67987941","0.00099320","98.0472","42.9263","127.6660","232.5445","0","U","39208","999","2748","0.00005847500000","0.00000287","0.0000000000000","7045.640","98.093","674.502","660.507","PAYLOAD","LARGE","PRC","2013-07-19","TSC","","1619205","94968197","0 PAYLOAD A","1 39208U 13037A   14023.26128974  .00000287  00000-0  58475-4 0  9995","2 39208 098.0472 042.9263 0009932 127.6660 232.5445 14.67987941 27483"
"2.0","GENERATED VIA SPACE-TRACK.ORG API","2014-01-23T13:21:51","18 SPCS","PAYLOAD B","2013-037B","EARTH","TEME","UTC","SGP4","2014-01-23T08:39:01.736927","14.67359624","0.00058410","98.0459","42.7915","116.2316","243.9495","0","U","39209","999","2747","0.00006557000000","0.00000323","0.0000000000000","7047.651","98.135","673.632","665.399","PAYLOAD","LARGE","PRC","2013-07-19","TSC","","1619267","94969710","0 PAYLOAD B","1 39209U 13037B   14023.36043677  .00000323  00000-0  65570-4 0  9998","2 39209 098.0459 042.7915 0005841 116.2316 243.9495 14.67359624 27479"
"2.0","GENERATED VIA SPACE-TRACK.ORG API","2014-01-23T13:23:25","18 SPCS","PAYLOAD C","2013-037C","EARTH","TEME","UTC","SGP4","2014-01-23T09:21:33.514272","14.95266149","0.00343840","97.6862","42.7479","132.3497","228.0659","0","U","39210","999","2793","0.00005582800000","0.00000563","0.0000000000000","6959.688","96.303","605.483","557.623","PAYLOAD","LARGE","PRC","2013-07-19","TSC","","1619269","94969745","0 PAYLOAD C","1 39210U 13037C   14023.38997123  .00000563  00000-0  55828-4 0  9997","2 39210 097.6862 042.7479 0034384 132.3497 228.0659 14.95266149 27939"
"2.0","GENERATED VIA SPACE-TRACK.ORG API","2014-01-23T15:56:47","18 SPCS","PAYLOAD A","2013-037A","EARTH","TEME","UTC","SGP4","2014-01-23T14:27:01.914335","14.67987657","0.00097290","98.0493","43.2633","127.8982","232.3600","0","U","39208","999","2753","0.00007242000000","0.00000415","0.0000000000000","7045.641","98.093","674.360","660.651","PAYLOAD","LARGE","PRC","2013-07-19","TSC","","1619321","94970476","0 PAYLOAD A","1 39208U 13037A   14023.60210549  .00000415  00000-0  72420-4 0  9992","2 39208 098.0493 043.2633 0009729 127.8982 232.3600 14.67987657 27535"
"2.0","GENERATED VIA SPACE-TRACK.ORG API","2014-01-23T23:21:18","18 SPCS","PAYLOAD A","2013-037A","EARTH","TEME","UTC","SGP4","2014-01-23T19:21:28.594080","14.67987596","0.00100120","98.0471","43.4625","125.9825","234.2275","0","U","39208","999","2756","0.00003882600000","0.00000174","0.0000000000000","7045.641","98.093","674.560","660.452","PAYLOAD","LARGE","PRC","2013-07-19","TSC","","1619432","94971849","0 PAYLOAD A","1 39208U 13037A   14023.80658095  .00000174  00000-0  38826-4 0  9990","2 39208 098.0471 043.4625 0010012 125.9825 234.2275 14.67987596 27560"
